{"type": "FeatureCollection", "features": [ {"type": "Feature", "properties": {"norad_id": 37216, "name": "COSMO-SKYMED 4", "group": "resource", "lat": -25.926431312051854, "lon": -5.217208313599537, "alt_km": 628.7968815898803, "timestamp": "2025-12-23T11:34:47.838843+00:00", "meta": {"OBJECT_NAME": "COSMO-SKYMED 4", "OBJECT_ID": "2010-060A", "EPOCH": "2025-12-23T04:10:19.614432", "MEAN_MOTION": 14.82154589, "ECCENTRICITY": 0.0001373, "INCLINATION": 97.88, "RA_OF_ASC_NODE": 178.3396, "ARG_OF_PERICENTER": 80.7898, "MEAN_ANOMALY": 279.347, "EPHEMERIS_TYPE": 0, "CLASSIFICATION_TYPE": "U", "NORAD_CAT_ID": 37216, "ELEMENT_SET_NO": 999, "REV_AT_EPOCH": 81849, "BSTAR": -7.9688e-07, "MEAN_MOTION_DOT": -5.8e-07, "MEAN_MOTION_DDOT": 0}, "tle": {"line1": "1 37216U 10060A   25357.17383813 -.00000058  00000+0 -79688-6 0  9990", "line2": "2 37216  97.8800 178.3396 0001373  80.7898 279.3470 14.82154589818493"}}, "geometry": {"type": "Point", "coordinates": [-5.217208313599537, -25.926431312051854]}}, {"type": "Feature", "properties": {"norad_id": 37387, "name": "RESOURCESAT-2", "group": "resource", "lat": -6.848131269275349, "lon": 62.049599076589956, "alt_km": 819.6908172398862, "timestamp": "2025-12-23T11:34:47.838852+00:00", "meta": {"OBJECT_NAME": "RESOURCESAT-2", "OBJECT_ID": "2011-015A", "EPOCH": "2025-12-23T01:28:38.313984", "MEAN_MOTION": 14.216012, "ECCENTRICITY": 0.0005935, "INCLINATION": 98.7862, "RA_OF_ASC_NODE": 60.5664, "ARG_OF_PERICENTER": 14.45, "MEAN_ANOMALY": 345.6845, "EPHEMERIS_TYPE": 0, "CLASSIFICATION_TYPE": "U", "NORAD_CAT_ID": 37387, "ELEMENT_SET_NO": 999, "REV_AT_EPOCH": 76115, "BSTAR": 8.7816e-05, "MEAN_MOTION_DOT": 1.48e-06, "MEAN_MOTION_DDOT": 0}, "tle": {"line1": "1 37387U 11015A   25357.06155456  .00000148  00000+0  87816-4 0  9996", "line2": "2 37387  98.7862  60.5664 0005935  14.4500 345.6845 14.21601200761155"}}, "geometry": {"type": "Point", "coordinates": [62.049599076589956, -6.848131269275349]}}, {"type": "Feature", "properties": {"norad_id": 37781, "name": "HAIYANG-2A", "group": "resource", "lat": -9.845361901849012, "lon": 176.61503605917534, "alt_km": 972.650746733103, "timestamp": "2025-12-23T11:34:47.838861+00:00", "meta": {"OBJECT_NAME": "HAIYANG-2A", "OBJECT_ID": "2011-043A", "EPOCH": "2025-12-23T03:41:45.945600", "MEAN_MOTION": 13.78835616, "ECCENTRICITY": 0.0001611, "INCLINATION": 99.3372, "RA_OF_ASC_NODE": 357.9278, "ARG_OF_PERICENTER": 70.1629, "MEAN_ANOMALY": 289.9696, "EPHEMERIS_TYPE": 0, "CLASSIFICATION_TYPE": "U", "NORAD_CAT_ID": 37781, "ELEMENT_SET_NO": 999, "REV_AT_EPOCH": 72242, "BSTAR": -4.1079e-05, "MEAN_MOTION_DOT": -8.6e-07, "MEAN_MOTION_DDOT": 0}, "tle": {"line1": "1 37781U 11043A   25357.15400400 -.00000086  00000+0 -41079-4 0  9991", "line2": "2 37781  99.3372 357.9278 0001611  70.1629 289.9696 13.78835616722420"}}, "geometry": {"type": "Point", "coordinates": [176.61503605917534, -9.845361901849012]}}, {"type": "Feature", "properties": {"norad_id": 37791, "name": "RASAT", "group": "resource", "lat": 33.35659833208626, "lon": -88.06332429787197, "alt_km": 671.6552344552474, "timestamp": "2025-12-23T11:34:47.838870+00:00", "meta": {"OBJECT_NAME": "RASAT", "OBJECT_ID": "2011-044D", "EPOCH": "2025-12-23T04:46:01.530048", "MEAN_MOTION": 14.67922979, "ECCENTRICITY": 0.0021387, "INCLINATION": 98.0649, "RA_OF_ASC_NODE": 86.3013, "ARG_OF_PERICENTER": 33.4727, "MEAN_ANOMALY": 53.2592, "EPHEMERIS_TYPE": 0, "CLASSIFICATION_TYPE": "U", "NORAD_CAT_ID": 37791, "ELEMENT_SET_NO": 999, "REV_AT_EPOCH": 76736, "BSTAR": 0.00010603, "MEAN_MOTION_DOT": 5.59e-06, "MEAN_MOTION_DDOT": 0}, "tle": {"line1": "1 37791U 11044D   25357.19862882  .00000559  00000+0  10603-3 0  9994", "line2": "2 37791  98.0649  86.3013 0021387  33.4727  53.2592 14.67922979767364"}}, "geometry": {"type": "Point", "coordinates": [-88.06332429787197, 33.35659833208626]}}, {"type": "Feature", "properties": {"norad_id": 37841, "name": "SRMSAT", "group": "resource", "lat": 17.42735696178128, "lon": 102.73642868977186, "alt_km": 840.8155067317175, "timestamp": "2025-12-23T11:34:47.838879+00:00", "meta": {"OBJECT_NAME": "SRMSAT", "OBJECT_ID": "2011-058D", "EPOCH": "2025-12-22T20:49:16.931712", "MEAN_MOTION": 14.11514738, "ECCENTRICITY": 0.0011987, "INCLINATION": 19.9728, "RA_OF_ASC_NODE": 46.656, "ARG_OF_PERICENTER": 64.3744, "MEAN_ANOMALY": 105.4319, "EPHEMERIS_TYPE": 0, "CLASSIFICATION_TYPE": "U", "NORAD_CAT_ID": 37841, "ELEMENT_SET_NO": 999, "REV_AT_EPOCH": 73287, "BSTAR": 8.3e-05, "MEAN_MOTION_DOT": 4.18e-06, "MEAN_MOTION_DDOT": 0}, "tle": {"line1": "1 37841U 11058D   25356.86755708  .00000418  00000+0  83000-4 0  9992", "line2": "2 37841  19.9728  46.6560 0011987  64.3744 105.4319 14.11514738732877"}}, "geometry": {"type": "Point", "coordinates": [102.73642868977186, 17.42735696178128]}}, {"type": "Feature", "properties": {"norad_id": 38012, "name": "PLEIADES 1A", "group": "resource", "lat": -59.01726452841028, "lon": 83.94810494290162, "alt_km": 705.4549881016383, "timestamp": "2025-12-23T11:34:47.838889+00:00", "meta": {"OBJECT_NAME": "PLEIADES 1A", "OBJECT_ID": "2011-076F", "EPOCH": "2025-12-23T05:33:53.707968", "MEAN_MOTION": 14.58570003, "ECCENTRICITY": 0.0001099, "INCLINATION": 98.1815, "RA_OF_ASC_NODE": 69.8385, "ARG_OF_PERICENTER": 75.1872, "MEAN_ANOMALY": 349.6502, "EPHEMERIS_TYPE": 0, "CLASSIFICATION_TYPE": "U", "NORAD_CAT_ID": 38012, "ELEMENT_SET_NO": 999, "REV_AT_EPOCH": 74634, "BSTAR": 6.8976e-05, "MEAN_MOTION_DOT": 2.75e-06, "MEAN_MOTION_DDOT": 0}, "tle": {"line1": "1 38012U 11076F   25357.23187162  .00000275  00000+0  68976-4 0  9994", "line2": "2 38012  98.1815  69.8385 0001099  75.1872 349.6502 14.58570003746342"}}, "geometry": {"type": "Point", "coordinates": [83.94810494290162, -59.01726452841028]}}, {"type": "Feature", "properties": {"norad_id": 38038, "name": "ZIYUAN 1-02C (ZY 1-02C)", "group": "resource", "lat": 44.779599183915096, "lon": -108.23740596183092, "alt_km": 756.2903435714425, "timestamp": "2025-12-23T11:34:47.838898+00:00", "meta": {"OBJECT_NAME": "ZIYUAN 1-02C (ZY 1-02C)", "OBJECT_ID": "2011-079A", "EPOCH": "2025-12-23T04:42:22.397184", "MEAN_MOTION": 14.38022718, "ECCENTRICITY": 0.0007506, "INCLINATION": 98.4322, "RA_OF_ASC_NODE": 63.0168, "ARG_OF_PERICENTER": 111.3585, "MEAN_ANOMALY": 341.2926, "EPHEMERIS_TYPE": 0, "CLASSIFICATION_TYPE": "U", "NORAD_CAT_ID": 38038, "ELEMENT_SET_NO": 999, "REV_AT_EPOCH": 73391, "BSTAR": 0.00013232, "MEAN_MOTION_DOT": 3.57e-06, "MEAN_MOTION_DDOT": 0}, "tle": {"line1": "1 38038U 11079A   25357.19609256  .00000357  00000+0  13232-3 0  9998", "line2": "2 38038  98.4322  63.0168 0007506 111.3585 341.2926 14.38022718733914"}}, "geometry": {"type": "Point", "coordinates": [-108.23740596183092, 44.779599183915096]}}, {"type": "Feature", "properties": {"norad_id": 38338, "name": "ARIRANG-3 (KOMPSAT-3)", "group": "resource", "lat": -40.16084121659669, "lon": -40.74065206339738, "alt_km": 690.9307258600775, "timestamp": "2025-12-23T11:34:47.838907+00:00", "meta": {"OBJECT_NAME": "ARIRANG-3 (KOMPSAT-3)", "OBJECT_ID": "2012-025B", "EPOCH": "2025-12-23T03:33:04.436064", "MEAN_MOTION": 14.61725622, "ECCENTRICITY": 0.0004766, "INCLINATION": 98.3338, "RA_OF_ASC_NODE": 311.8165, "ARG_OF_PERICENTER": 301.7957, "MEAN_ANOMALY": 58.2779, "EPHEMERIS_TYPE": 0, "CLASSIFICATION_TYPE": "U", "NORAD_CAT_ID": 38338, "ELEMENT_SET_NO": 999, "REV_AT_EPOCH": 72562, "BSTAR": 0.00011805, "MEAN_MOTION_DOT": 5.4e-06, "MEAN_MOTION_DDOT": 0}, "tle": {"line1": "1 38338U 12025B   25357.14796801  .00000540  00000+0  11805-3 0  9999", "line2": "2 38338  98.3338 311.8165 0004766 301.7957  58.2779 14.61725622725627"}}, "geometry": {"type": "Point", "coordinates": [-40.74065206339738, -40.16084121659669]}}, {"type": "Feature", "properties": {"norad_id": 38709, "name": "EXACTVIEW-1 (ADS-1B)", "group": "resource", "lat": -23.64446464853979, "lon": 110.06037509613589, "alt_km": 807.1117420672326, "timestamp": "2025-12-23T11:34:47.838917+00:00", "meta": {"OBJECT_NAME": "EXACTVIEW-1 (ADS-1B)", "OBJECT_ID": "2012-039C", "EPOCH": "2025-12-23T01:34:49.300032", "MEAN_MOTION": 14.2491189, "ECCENTRICITY": 0.0010177, "INCLINATION": 98.9638, "RA_OF_ASC_NODE": 105.6726, "ARG_OF_PERICENTER": 323.3525, "MEAN_ANOMALY": 36.6956, "EPHEMERIS_TYPE": 0, "CLASSIFICATION_TYPE": "U", "NORAD_CAT_ID": 38709, "ELEMENT_SET_NO": 999, "REV_AT_EPOCH": 69762, "BSTAR": 7.8654e-05, "MEAN_MOTION_DOT": 1.37e-06, "MEAN_MOTION_DDOT": 0}, "tle": {"line1": "1 38709U 12039C   25357.06584838  .00000137  00000+0  78654-4 0  9990", "line2": "2 38709  98.9638 105.6726 0010177 323.3525  36.6956 14.24911890697622"}}, "geometry": {"type": "Point", "coordinates": [110.06037509613589, -23.64446464853979]}}, {"type": "Feature", "properties": {"norad_id": 38755, "name": "SPOT 6", "group": "resource", "lat": -43.0902799107436, "lon": -125.64146878891803, "alt_km": 705.2822082705034, "timestamp": "2025-12-23T11:34:47.838925+00:00", "meta": {"OBJECT_NAME": "SPOT 6", "OBJECT_ID": "2012-047A", "EPOCH": "2025-12-23T03:58:20.579808", "MEAN_MOTION": 14.5854069, "ECCENTRICITY": 0.0001268, "INCLINATION": 98.1561, "RA_OF_ASC_NODE": 61.7575, "ARG_OF_PERICENTER": 78.3165, "MEAN_ANOMALY": 281.8177, "EPHEMERIS_TYPE": 0, "CLASSIFICATION_TYPE": "U", "NORAD_CAT_ID": 38755, "ELEMENT_SET_NO": 999, "REV_AT_EPOCH": 70739, "BSTAR": 7.3643e-05, "MEAN_MOTION_DOT": 2.97e-06, "MEAN_MOTION_DDOT": 0}, "tle": {"line1": "1 38755U 12047A   25357.16551597  .00000297  00000+0  73643-4 0  9997", "line2": "2 38755  98.1561  61.7575 0001268  78.3165 281.8177 14.58540690707390"}}, "geometry": {"type": "Point", "coordinates": [-125.64146878891803, -43.0902799107436]}}]}